[{"OBJECT_NAME":"HERMES-3","OBJECT_ID":"2025-052BR","EPOCH":"2026-03-09T22:30:01.073952","MEAN_MOTION":15.30039786,"ECCENTRICITY":0.00079928,"INCLINATION":97.3987,"RA_OF_ASC_NODE":324.6131,"ARG_OF_PERICENTER":112.9583,"MEAN_ANOMALY":247.2502,"EPHEMERIS_TYPE":0,"CLASSIFICATION_TYPE":"U","NORAD_CAT_ID":63835,"ELEMENT_SET_NO":999,"REV_AT_EPOCH":5486,"BSTAR":0.0006995793,"MEAN_MOTION_DOT":0.00020316,"MEAN_MOTION_DDOT":0},{"OBJECT_NAME":"STARLINK-34527","OBJECT_ID":"2025-133L","EPOCH":"2026-03-09T13:29:45.387168","MEAN_MOTION":15.30198726,"ECCENTRICITY":0.0001222,"INCLINATION":53.1573,"RA_OF_ASC_NODE":117.0528,"ARG_OF_PERICENTER":81.4464,"MEAN_ANOMALY":278.6675,"EPHEMERIS_TYPE":0,"CLASSIFICATION_TYPE":"U","NORAD_CAT_ID":64482,"ELEMENT_SET_NO":999,"REV_AT_EPOCH":4117,"BSTAR":0.00091272,"MEAN_MOTION_DOT":0.00026769,"MEAN_MOTION_DDOT":0}]
